start=new Date('2023-01-24T00:00:00.000Z').valueOf();
sats=[{"ECCENTRICITY":"0.00016130","CENTER_NAME":"EARTH","PERIAPSIS":"538.620","LAUNCH_DATE":"2022-05-06","RCS_SIZE":"LARGE","DECAY_DATE":null,"SITE":"AFETR","ARG_OF_PERICENTER":"78.7941","EPOCH":"2023-01-23T06:16:05.262528","MEAN_ELEMENT_THEORY":"SGP4","EPHEMERIS_TYPE":"0","SEMIMAJOR_AXIS":"6917.871","ELEMENT_SET_NO":"999","MEAN_MOTION_DOT":"0.00008479","TLE_LINE1":"1 52485U 22049AL  23023.26117202  .00008479  00000-0  55011-3 0  9995","MEAN_ANOMALY":"281.3232","RA_OF_ASC_NODE":"133.1932","OBJECT_ID":"2022-049AL","INCLINATION":"53.2177","MEAN_MOTION":"15.08842978","APOAPSIS":"540.852","OBJECT_TYPE":"PAYLOAD","TLE_LINE2":"2 52485  53.2177 133.1932 0001613  78.7941 281.3232 15.08842978 40232","REV_AT_EPOCH":"4023","COUNTRY_CODE":"US","OBJECT_NAME":"STARLINK-3913","MEAN_MOTION_DDOT":"0.0000000000000","CLASSIFICATION_TYPE":"U","BSTAR":"0.00055011000000","FILE":"3758581","NORAD_CAT_ID":"52485","GP_ID":"223608044","PERIOD":"95.437","TIME_SYSTEM":"UTC","REF_FRAME":"TEME"},{"DECAY_DATE":null,"SITE":"AFETR","RCS_SIZE":"LARGE","ARG_OF_PERICENTER":"110.9091","EPOCH":"2023-01-23T16:45:21.286656","ECCENTRICITY":"0.00007110","LAUNCH_DATE":"2022-05-06","PERIAPSIS":"539.230","CENTER_NAME":"EARTH","MEAN_ANOMALY":"249.1977","RA_OF_ASC_NODE":"141.2419","OBJECT_ID":"2022-049AM","MEAN_MOTION":"15.08847788","INCLINATION":"53.2167","MEAN_ELEMENT_THEORY":"SGP4","MEAN_MOTION_DOT":"0.00001393","SEMIMAJOR_AXIS":"6917.857","ELEMENT_SET_NO":"999","EPHEMERIS_TYPE":"0","TLE_LINE1":"1 52486U 22049AM  23023.69816304  .00001393  00000-0  10556-3 0  9995","OBJECT_NAME":"STARLINK-3918","OBJECT_TYPE":"PAYLOAD","APOAPSIS":"540.213","TLE_LINE2":"2 52486  53.2167 141.2419 0000711 110.9091 249.1977 15.08847788 40169","COUNTRY_CODE":"US","REV_AT_EPOCH":"4016","GP_ID":"223621376","PERIOD":"95.437","REF_FRAME":"TEME","TIME_SYSTEM":"UTC","MEAN_MOTION_DDOT":"0.0000000000000","BSTAR":"0.00010556000000","CLASSIFICATION_TYPE":"U","NORAD_CAT_ID":"52486","FILE":"3759171"},{"OBJECT_NAME":"STARLINK-3902","REV_AT_EPOCH":"4028","COUNTRY_CODE":"US","OBJECT_TYPE":"PAYLOAD","APOAPSIS":"541.272","TLE_LINE2":"2 52487  53.2180 131.6963 0002232  87.9721 272.1527 15.08845582 40285","TIME_SYSTEM":"UTC","REF_FRAME":"TEME","GP_ID":"223613649","PERIOD":"95.437","BSTAR":"0.00092945000000","CLASSIFICATION_TYPE":"U","FILE":"3758823","NORAD_CAT_ID":"52487","MEAN_MOTION_DDOT":"0.0000000000000","ARG_OF_PERICENTER":"87.9721","EPOCH":"2023-01-23T14:14:23.534880","DECAY_DATE":null,"SITE":"AFETR","RCS_SIZE":"LARGE","ECCENTRICITY":"0.00022320","PERIAPSIS":"538.184","LAUNCH_DATE":"2022-05-06","CENTER_NAME":"EARTH","RA_OF_ASC_NODE":"131.6963","OBJECT_ID":"2022-049AN","MEAN_MOTION":"15.08845582","INCLINATION":"53.2180","MEAN_ANOMALY":"272.1527","MEAN_MOTION_DOT":"0.00014537","EPHEMERIS_TYPE":"0","SEMIMAJOR_AXIS":"6917.863","ELEMENT_SET_NO":"999","TLE_LINE1":"1 52487U 22049AN  23023.59332795  .00014537  00000-0  92945-3 0  9998","MEAN_ELEMENT_THEORY":"SGP4"},{"NORAD_CAT_ID":"52488","FILE":"3758589","BSTAR":"0.00077652000000","CLASSIFICATION_TYPE":"U","MEAN_MOTION_DDOT":"0.0000000000000","TIME_SYSTEM":"UTC","REF_FRAME":"TEME","PERIOD":"95.437","GP_ID":"223608276","COUNTRY_CODE":"US","REV_AT_EPOCH":"4010","TLE_LINE2":"2 52488  53.2157 143.0458 0002202  89.4264 270.6981 15.08841092 40102","OBJECT_TYPE":"PAYLOAD","APOAPSIS":"541.265","OBJECT_NAME":"STARLINK-3892","TLE_LINE1":"1 52488U 22049AP  23023.29705162  .00012092  00000-0  77652-3 0  9990","MEAN_MOTION_DOT":"0.00012092","EPHEMERIS_TYPE":"0","SEMIMAJOR_AXIS":"6917.877","ELEMENT_SET_NO":"999","MEAN_ELEMENT_THEORY":"SGP4","MEAN_MOTION":"15.08841092","INCLINATION":"53.2157","RA_OF_ASC_NODE":"143.0458","OBJECT_ID":"2022-049AP","MEAN_ANOMALY":"270.6981","PERIAPSIS":"538.219","LAUNCH_DATE":"2022-05-06","CENTER_NAME":"EARTH","ECCENTRICITY":"0.00022020","EPOCH":"2023-01-23T07:07:45.259968","ARG_OF_PERICENTER":"89.4264","DECAY_DATE":null,"SITE":"AFETR","RCS_SIZE":"LARGE"},{"OBJECT_NAME":"STARLINK-3923","TLE_LINE2":"2 52489  53.2140 141.2185 0001175  92.8372 267.2754 15.08854304 40164","OBJECT_TYPE":"PAYLOAD","APOAPSIS":"540.515","COUNTRY_CODE":"US","REV_AT_EPOCH":"4016","PERIOD":"95.437","GP_ID":"223621397","REF_FRAME":"TEME","TIME_SYSTEM":"UTC","MEAN_MOTION_DDOT":"0.0000000000000","FILE":"3759172","NORAD_CAT_ID":"52489","BSTAR":"0.00010635000000","CLASSIFICATION_TYPE":"U","SITE":"AFETR","DECAY_DATE":null,"RCS_SIZE":"LARGE","EPOCH":"2023-01-23T16:50:39.208416","ARG_OF_PERICENTER":"92.8372","LAUNCH_DATE":"2022-05-06","PERIAPSIS":"538.889","CENTER_NAME":"EARTH","ECCENTRICITY":"0.00011750","MEAN_ANOMALY":"267.2754","MEAN_MOTION":"15.08854304","INCLINATION":"53.2140","RA_OF_ASC_NODE":"141.2185","OBJECT_ID":"2022-049AQ","MEAN_ELEMENT_THEORY":"SGP4","TLE_LINE1":"1 52489U 22049AQ  23023.70184269  .00001406  00000-0  10635-3 0  9991","MEAN_MOTION_DOT":"0.00001406","EPHEMERIS_TYPE":"0","SEMIMAJOR_AXIS":"6917.837","ELEMENT_SET_NO":"999"},{"OBJECT_ID":"2022-049AR","RA_OF_ASC_NODE":"136.2393","INCLINATION":"53.2166","MEAN_MOTION":"15.08838276","MEAN_ANOMALY":"278.7280","SEMIMAJOR_AXIS":"6917.886","EPHEMERIS_TYPE":"0","ELEMENT_SET_NO":"999","MEAN_MOTION_DOT":"-0.00001119","TLE_LINE1":"1 52490U 22049AR  23022.58403997 -.00001119  00000-0 -52230-4 0  9991","MEAN_ELEMENT_THEORY":"SGP4","ARG_OF_PERICENTER":"81.3883","EPOCH":"2023-01-22T14:01:01.053408","DECAY_DATE":null,"RCS_SIZE":"LARGE","SITE":"AFETR","ECCENTRICITY":"0.00015030","CENTER_NAME":"EARTH","PERIAPSIS":"538.711","LAUNCH_DATE":"2022-05-06","TIME_SYSTEM":"UTC","REF_FRAME":"TEME","GP_ID":"223594094","PERIOD":"95.438","CLASSIFICATION_TYPE":"U","BSTAR":"-0.00005223000000","NORAD_CAT_ID":"52490","FILE":"3757912","MEAN_MOTION_DDOT":"0.0000000000000","OBJECT_NAME":"STARLINK-3914","REV_AT_EPOCH":"4013","COUNTRY_CODE":"US","APOAPSIS":"540.790","OBJECT_TYPE":"PAYLOAD","TLE_LINE2":"2 52490  53.2166 136.2393 0001503  81.3883 278.7280 15.08838276 40132"},{"RCS_SIZE":"LARGE","DECAY_DATE":null,"SITE":"AFETR","ARG_OF_PERICENTER":"96.2192","EPOCH":"2023-01-23T07:40:52.551552","ECCENTRICITY":"0.00015260","CENTER_NAME":"EARTH","PERIAPSIS":"538.676","LAUNCH_DATE":"2022-05-06","MEAN_ANOMALY":"263.8974","RA_OF_ASC_NODE":"132.9384","OBJECT_ID":"2022-049AS","INCLINATION":"53.2164","MEAN_MOTION":"15.08844626","MEAN_ELEMENT_THEORY":"SGP4","ELEMENT_SET_NO":"999","SEMIMAJOR_AXIS":"6917.866","EPHEMERIS_TYPE":"0","MEAN_MOTION_DOT":"0.00015077","TLE_LINE1":"1 52491U 22049AS  23023.32005268  .00015077  00000-0  96324-3 0  9991","OBJECT_NAME":"STARLINK-3908","APOAPSIS":"540.787","OBJECT_TYPE":"PAYLOAD","TLE_LINE2":"2 52491  53.2164 132.9384 0001526  96.2192 263.8974 15.08844626 40240","COUNTRY_CODE":"US","REV_AT_EPOCH":"4024","GP_ID":"223608288","PERIOD":"95.437","REF_FRAME":"TEME","TIME_SYSTEM":"UTC","MEAN_MOTION_DDOT":"0.0000000000000","CLASSIFICATION_TYPE":"U","BSTAR":"0.00096324000000","FILE":"3758578","NORAD_CAT_ID":"52491"},{"TLE_LINE1":"1 52492U 22049AT  23023.30533309  .00001025  00000-0  82490-4 0  9990","MEAN_MOTION_DOT":"0.00001025","EPHEMERIS_TYPE":"0","SEMIMAJOR_AXIS":"6917.897","ELEMENT_SET_NO":"999","MEAN_ELEMENT_THEORY":"SGP4","MEAN_MOTION":"15.08834662","INCLINATION":"53.2134","RA_OF_ASC_NODE":"133.0001","OBJECT_ID":"2022-049AT","MEAN_ANOMALY":"274.9648","LAUNCH_DATE":"2022-05-06","PERIAPSIS":"538.530","CENTER_NAME":"EARTH","ECCENTRICITY":"0.00017800","EPOCH":"2023-01-23T07:19:40.778976","ARG_OF_PERICENTER":"85.1547","DECAY_DATE":null,"RCS_SIZE":"LARGE","SITE":"AFETR","NORAD_CAT_ID":"52492","FILE":"3758578","BSTAR":"0.00008249000000","CLASSIFICATION_TYPE":"U","MEAN_MOTION_DDOT":"0.0000000000000","TIME_SYSTEM":"UTC","REF_FRAME":"TEME","PERIOD":"95.438","GP_ID":"223608294","COUNTRY_CODE":"US","REV_AT_EPOCH":"4024","TLE_LINE2":"2 52492  53.2134 133.0001 0001780  85.1547 274.9648 15.08834662 40249","OBJECT_TYPE":"PAYLOAD","APOAPSIS":"540.993","OBJECT_NAME":"STARLINK-3916"},{"MEAN_ANOMALY":"267.0318","OBJECT_ID":"2022-049AU","RA_OF_ASC_NODE":"131.7700","MEAN_MOTION":"15.08843235","INCLINATION":"53.2155","MEAN_ELEMENT_THEORY":"SGP4","MEAN_MOTION_DOT":"0.00001176","SEMIMAJOR_AXIS":"6917.871","ELEMENT_SET_NO":"999","EPHEMERIS_TYPE":"0","TLE_LINE1":"1 52493U 22049AU  23023.58132452  .00001176  00000-0  91930-4 0  9991","SITE":"AFETR","DECAY_DATE":null,"RCS_SIZE":"LARGE","ARG_OF_PERICENTER":"93.0802","EPOCH":"2023-01-23T13:57:06.438528","ECCENTRICITY":"0.00011250","LAUNCH_DATE":"2022-05-06","PERIAPSIS":"538.957","CENTER_NAME":"EARTH","GP_ID":"223613639","PERIOD":"95.437","TIME_SYSTEM":"UTC","REF_FRAME":"TEME","MEAN_MOTION_DDOT":"0.0000000000000","BSTAR":"0.00009193000000","CLASSIFICATION_TYPE":"U","FILE":"3758820","NORAD_CAT_ID":"52493","OBJECT_NAME":"STARLINK-3883","OBJECT_TYPE":"PAYLOAD","APOAPSIS":"540.514","TLE_LINE2":"2 52493  53.2155 131.7700 0001125  93.0802 267.0318 15.08843235 40286","REV_AT_EPOCH":"4028","COUNTRY_CODE":"US"},{"SEMIMAJOR_AXIS":"6917.902","EPHEMERIS_TYPE":"0","ELEMENT_SET_NO":"999","MEAN_MOTION_DOT":"0.00006495","TLE_LINE1":"1 52494U 22049AV  23023.69173583  .00006495  00000-0  42590-3 0  9990","MEAN_ELEMENT_THEORY":"SGP4","RA_OF_ASC_NODE":"131.2688","OBJECT_ID":"2022-049AV","INCLINATION":"53.2135","MEAN_MOTION":"15.08832866","MEAN_ANOMALY":"328.3080","ECCENTRICITY":"0.00016230","CENTER_NAME":"EARTH","PERIAPSIS":"538.644","LAUNCH_DATE":"2022-05-06","ARG_OF_PERICENTER":"31.8010","EPOCH":"2023-01-23T16:36:05.975712","RCS_SIZE":"LARGE","DECAY_DATE":null,"SITE":"AFETR","CLASSIFICATION_TYPE":"U","BSTAR":"0.00042590000000","FILE":"3759172","NORAD_CAT_ID":"52494","MEAN_MOTION_DDOT":"0.0000000000000","TIME_SYSTEM":"UTC","REF_FRAME":"TEME","GP_ID":"223621393","PERIOD":"95.438","COUNTRY_CODE":"US","REV_AT_EPOCH":"4030","APOAPSIS":"540.890","OBJECT_TYPE":"PAYLOAD","TLE_LINE2":"2 52494  53.2135 131.2688 0001623  31.8010 328.3080 15.08832866 40307","OBJECT_NAME":"STARLINK-3857"}];
